GPS BIIR-2  (PRN 13)    
1 24876C 97035A   23030.70645833 -.00000000  00000-0  00000-0 0   302
2 24876  55.5466 146.8046 0065763  52.6758 301.8987  2.00564154    13
GPS BIIR-4  (PRN 20)    
1 26360C 00025A   23030.70645833 -.00000000  00000-0  00000-0 0   305
2 26360  54.2471  69.4944 0045635 194.6642 249.5716  2.00556230    11
GPS BIIR-8  (PRN 16)    
1 27663C 03005A   23030.70645833  .00000000  00000-0  00000-0 0   302
2 27663  55.3647 264.0299 0131833  42.7947  15.7726  2.00551608    16
GPS BIIR-9  (PRN 21)    
1 27704C 03010A   23030.70645833 -.00000000  00000-0  00000-0 0   305
2 27704  55.0896  14.1140 0249734 312.3442 325.1363  2.00565851    10
GPS BIIR-11 (PRN 19)    
1 28190C 04009A   23030.70645833  .00000000  00000-0  00000-0 0   303
2 28190  55.8545 325.0613 0088778 128.9370  86.9717  2.00572432    16
GPS BIIR-13 (PRN 02)    
1 28474C 04045A   23030.70645833 -.00000000  00000-0  00000-0 0   309
2 28474  55.4146  14.3413 0202704 283.3986 143.7280  2.00562324    12
GPS BIIRM-1 (PRN 17)    
1 28874C 05038A   23030.70645833  .00000000  00000-0  00000-0 0   305
2 28874  55.9115 322.5044 0139673 278.1003 326.1151  2.00560343    10
GPS BIIRM-2 (PRN 31)    
1 29486C 06042A   23030.70645833  .00000000  00000-0  00000-0 0   301
2 29486  54.6977 200.2444 0106801  27.4505 132.9784  2.00566254    19
GPS BIIRM-3 (PRN 12)    
1 29601C 06052A   23030.70645833  .00000000  00000-0  00000-0 0   301
2 29601  55.3789 262.9777 0086654  76.0009 120.4225  2.00564569    12
GPS BIIRM-4 (PRN 15)    
1 32260C 07047A   23030.70645833 -.00000000  00000-0  00000-0 0   302
2 32260  53.3837 131.1226 0145379  67.0734 272.2057  2.00563660    10
GPS BIIRM-5 (PRN 29)    
1 32384C 07062A   23030.70645833  .00000000  00000-0  00000-0 0   305
2 32384  56.0377 323.2956 0020059 143.2083 323.1461  2.00574183    18
GPS BIIRM-6 (PRN 07)    
1 32711C 08012A   23030.70645833  .00000000  00000-0  00000-0 0   305
2 32711  54.4619 199.1279 0168575 232.7993 165.1667  2.00572249    14
GPS BIIRM-8 (PRN 05)    
1 35752C 09043A   23030.70645833 -.00000000  00000-0  00000-0 0   309
2 35752  55.2512  76.3911 0055711  63.9029 348.3826  2.00572054    19
GPS BIIF-1  (PRN 25)    
1 36585C 10022A   23030.70645833  .00000000  00000-0  00000-0 0   302
2 36585  54.6698 258.3392 0109052  58.2721 116.1903  2.00550919    14
GPS BIIF-2  (PRN 01)    
1 37753C 11036A   23030.70645833 -.00000000  00000-0  00000-0 0   307
2 37753  56.6926  19.8666 0120910  52.8984 200.7453  2.00566870    12
GPS BIIF-3  (PRN 24)    
1 38833C 12053A   23030.70645833  .00000000  00000-0  00000-0 0   306
2 38833  53.5199 194.0476 0135294  49.9379 216.5713  2.00564282    10
GPS BIIF-4  (PRN 27)    
1 39166C 13023A   23030.70645833  .00000000  00000-0  00000-0 0   304
2 39166  55.5312 318.7879 0110886  38.8644 329.2763  2.00565402    15
GPS BIIF-5  (PRN 30)    
1 39533C 14008A   23030.70645833  .00000000  00000-0  00000-0 0   306
2 39533  53.6100 199.5792 0061914 209.4959 155.6945  2.00566308    17
GPS BIIF-6  (PRN 06)    
1 39741C 14026A   23030.70645833 -.00000000  00000-0  00000-0 0   308
2 39741  56.6500  19.3910 0030749 307.9298 217.5377  2.00572821    12
GPS BIIF-7  (PRN 09)    
1 40105C 14045A   23030.70645833 -.00000000  00000-0  00000-0 0   305
2 40105  54.7482 137.7285 0023270 114.6330 344.8183  2.00562513    13
GPS BIIF-8  (PRN 03)    
1 40294C 14068A   23030.70645833 -.00000000  00000-0  00000-0 0   309
2 40294  55.9945  78.9713 0042509  56.8685 135.9636  2.00557501    10
GPS BIIF-9  (PRN 26)    
1 40534C 15013A   23030.70645833  .00000000  00000-0  00000-0 0   306
2 40534  53.5694 255.2740 0077135  23.8062  71.3852  2.00568290    18
GPS BIIF-10 (PRN 08)    
1 40730C 15033A   23030.70645833  .00000000  00000-0  00000-0 0   306
2 40730  55.0243 317.5072 0081906  10.1114 329.9110  2.00566716    11
GPS BIIF-11 (PRN 10)    
1 41019C 15062A   23030.70645833 -.00000000  00000-0  00000-0 0   300
2 41019  55.9805  78.8180 0085666 220.6821  79.7492  2.00562709    13
GPS BIIF-12 (PRN 32)    
1 41328C 16007A   23030.70645833 -.00000000  00000-0  00000-0 0   303
2 41328  54.9594 138.4547 0067267 231.4787   6.2487  2.00560054    18
GPS BIII-1  (PRN 04)    
1 43873C 18109A   23030.70645833 -.00000000  00000-0  00000-0 0   305
2 43873  55.1379 140.9230 0023224 190.4157 297.6074  2.00558538    18
GPS BIII-2  (PRN 18)    
1 44506C 19056A   23030.70645833 -.00000000  00000-0  00000-0 0   301
2 44506  55.7682  20.0210 0029841 186.7741 202.0664  2.00561473    16
GPS BIII-3  (PRN 23)    
1 45854C 20041A   23030.70645833 -.00000000  00000-0  00000-0 0   304
2 45854  55.7007  77.2927 0029932 185.7807 144.5550  2.00567232    19
GPS BIII-4  (PRN 14)    
1 46826C 20078A   23030.70645833  .00000000  00000-0  00000-0 0   303
2 46826  54.4253 260.8675 0026355 188.2844 118.2515  2.00564777    13
GPS BIII-5  (PRN 11)    
1 48859C 21054A   23030.70645833 -.00000000  00000-0  00000-0 0   307
2 48859  55.2800  21.9099 0009073 219.6076 270.8903  2.00561141    16
GPS BIII-6  (PRN 28)    
1 55268C 23009A   23030.70645833  .00000000  00000-0  00000-0 0   300
2 55268  55.0148 196.9136 0001397 311.6399 218.7106  2.00570086    12
